NORAD_CAT_ID,OBJECT_NAME,OBJECT_TYPE,EPOCH,MEAN_MOTION,ECCENTRICITY,INCLINATION,RA_OF_ASC_NODE,ARG_OF_PERICENTER,MEAN_ANOMALY,BSTAR,MEAN_MOTION_DOT,MEAN_MOTION_DDOT,TLE_LINE0,TLE_LINE1,TLE_LINE2,SEMIMAJOR_AXIS,PERIOD,APOGEE,PERIGEE,DECAYED
54090.0,STARLINK-5177,PAYLOAD,2023-03-13 10:41:56,15.08840517,0.0001091,53.217,197.2973,82.3554,277.7562,2.2119e-05,6.4e-07,0.0,0 STARLINK-5177,1 54090U 22136AR  23072.44579676  .00000064  00000-0  22119-4 0  9993,2 54090  53.2170 197.2973 0001091  82.3554 277.7562 15.08840517 22564,6917.879,95.438,540.499,538.989,0.0
54090.0,STARLINK-5177,PAYLOAD,2023-03-14 12:08:06,15.08842801,0.0002193,53.2173,192.5382,107.8072,252.3159,6.5006e-05,7.47e-06,0.0,0 STARLINK-5177,1 54090U 22136AR  23073.50563607  .00000747  00000-0  65006-4 0  9998,2 54090  53.2173 192.5382 0002193 107.8072 252.3159 15.08842801 22728,6917.872,95.437,541.254,538.22,0.0
54090.0,STARLINK-5177,PAYLOAD,2023-03-15 11:58:52,15.08860669,0.0001534,53.218,188.0794,97.1973,262.9194,0.00021793,3.184e-05,0.0,0 STARLINK-5177,1 54090U 22136AR  23074.49922428  .00003184  00000-0  21793-3 0  9999,2 54090  53.2180 188.0794 0001534  97.1973 262.9194 15.08860669 22876,6917.817,95.436,540.743,538.621,0.0
54090.0,STARLINK-5177,PAYLOAD,2023-03-16 02:17:21,15.0884722,0.0001395,53.2136,185.4017,75.9731,284.1416,0.00021001,3.057e-05,0.0,0 STARLINK-5177,1 54090U 22136AR  23075.09538879  .00003057  00000-0  21001-3 0  9990,2 54090  53.2136 185.4017 0001395  75.9731 284.1416 15.08847220 22968,6917.858,95.437,540.688,538.758,0.0
54090.0,STARLINK-5177,PAYLOAD,2023-03-16 10:14:17,15.08827919,0.0001083,53.2154,183.9163,70.1527,289.9582,-0.00030309,-5.107e-05,0.0,0 STARLINK-5177,1 54090U 22136AR  23075.42659526 -.00005107  00000-0 -30309-3 0  9991,2 54090  53.2154 183.9163 0001083  70.1527 289.9582 15.08827919 23014,6917.917,95.438,540.532,539.033,0.0
54090.0,STARLINK-5177,PAYLOAD,2023-03-17 13:15:52,15.08822337,6.17e-05,53.2183,178.8629,60.561,299.5444,-0.00019668,-3.415e-05,0.0,0 STARLINK-5177,1 54090U 22136AR  23076.55268949 -.00003415  00000-0 -19668-3 0  9996,2 54090  53.2183 178.8629 0000617  60.5610 299.5444 15.08822337 23185,6917.934,95.439,540.226,539.373,0.0
54090.0,STARLINK-5177,PAYLOAD,2023-03-18 03:34:20,15.08832332,0.000113,53.2155,176.1853,68.502,291.6092,0.00038032,5.769e-05,0.0,0 STARLINK-5177,1 54090U 22136AR  23077.14885083  .00005769  00000-0  38032-3 0  9994,2 54090  53.2155 176.1853 0001130  68.5020 291.6092 15.08832332 23276,6917.904,95.438,540.551,538.987,0.0
54090.0,STARLINK-5177,PAYLOAD,2023-03-18 13:06:39,15.08868297,8.88e-05,53.2161,174.4003,78.1243,281.9849,0.0014069,0.00022191,0.0,0 STARLINK-5177,1 54090U 22136AR  23077.54628487  .00022191  00000-0  14069-2 0  9992,2 54090  53.2161 174.4003 0000888  78.1243 281.9849 15.08868297 23332,6917.794,95.436,540.273,539.045,0.0
54090.0,STARLINK-5177,PAYLOAD,2023-03-19 06:35:52,15.0886604,0.0001032,53.216,171.1291,69.834,290.2763,0.00054631,8.423e-05,0.0,0 STARLINK-5177,1 54090U 22136AR  23078.27491813  .00008423  00000-0  54631-3 0  9996,2 54090  53.2160 171.1291 0001032  69.8340 290.2763 15.08866040 23445,6917.801,95.436,540.38,538.952,0.0
54090.0,STARLINK-5177,PAYLOAD,2023-03-19 12:57:25,15.08870595,0.0001078,53.217,169.9403,85.5631,274.5484,0.00064439,9.991e-05,0.0,0 STARLINK-5177,1 54090U 22136AR  23078.53987415  .00009991  00000-0  64439-3 0  9991,2 54090  53.2170 169.9403 0001078  85.5631 274.5484 15.08870595 23012,6917.787,95.436,540.398,538.906,0.0
54090.0,STARLINK-5177,PAYLOAD,2023-03-19 16:08:11,15.08871472,0.0001047,53.2168,169.3462,89.6635,270.4477,0.0015796,0.00024962,0.0,0 STARLINK-5177,1 54090U 22136AR  23078.67235249  .00024962  00000-0  15796-2 0  9993,2 54090  53.2168 169.3462 0001047  89.6635 270.4477 15.08871472 23037,6917.784,95.436,540.373,538.925,0.0
54090.0,STARLINK-5177,PAYLOAD,2023-03-20 06:26:40,15.08854498,0.00031,53.2168,166.6698,75.6498,284.4838,0.0012479,0.00019637,0.0,0 STARLINK-5177,1 54090U 22136AR  23079.26852108  .00019637  00000-0  12479-2 0  9996,2 54090  53.2168 166.6698 0003100  75.6498 284.4838 15.08854498 23598,6917.836,95.437,541.846,537.557,0.0
54090.0,STARLINK-5177,PAYLOAD,2023-03-20 12:48:12,15.08837678,0.0001343,53.2169,165.4803,78.7018,281.4125,0.00083921,0.00013092,0.0,0 STARLINK-5177,1 54090U 22136AR  23079.53348185  .00013092  00000-0  83921-3 0  9991,2 54090  53.2169 165.4803 0001343  78.7018 281.4125 15.08837678 23635,6917.887,95.438,540.682,538.823,0.0
54090.0,STARLINK-5177,PAYLOAD,2023-03-21 04:42:04,15.08847361,0.0001444,53.217,162.5077,75.0297,285.0855,0.0010346,0.00016219,0.0,0 STARLINK-5177,1 54090U 22136AR  23080.19588463  .00016219  00000-0  10346-2 0  9994,2 54090  53.2170 162.5077 0001444  75.0297 285.0855 15.08847361 23730,6917.858,95.437,540.722,538.724,0.0
54090.0,STARLINK-5177,PAYLOAD,2023-03-21 12:38:59,15.08857103,0.0001448,53.2171,161.0209,72.122,287.993,0.00099264,0.00015553,0.0,0 STARLINK-5177,1 54090U 22136AR  23080.52708177  .00015553  00000-0  99264-3 0  9994,2 54090  53.2171 161.0209 0001448  72.1220 287.9930 15.08857103 23314,6917.828,95.436,540.695,538.691,0.0
54090.0,STARLINK-5177,PAYLOAD,2023-03-21 23:46:41,15.08847763,0.0001708,53.2183,158.9366,152.5633,207.5449,0.00021453,3.129e-05,0.0,0 STARLINK-5177,1 54090U 22136AR  23080.99075797  .00003129  00000-0  21453-3 0  9991,2 54090  53.2183 158.9366 0001708 152.5633 207.5449 15.08847763 23859,6917.857,95.437,540.903,538.54,0.0
54090.0,STARLINK-5177,PAYLOAD,2023-03-22 12:29:46,15.08844679,0.000122,53.2157,156.5595,110.8821,249.2302,0.00020505,2.977e-05,0.0,0 STARLINK-5177,1 54090U 22136AR  23081.52068129  .00002977  00000-0  20505-3 0  9999,2 54090  53.2157 156.5595 0001220 110.8821 249.2302 15.08844679 23936,6917.866,95.437,540.575,538.887,0.0
54090.0,STARLINK-5177,PAYLOAD,2023-03-23 12:20:34,15.08849722,0.0001678,53.2167,152.1008,69.0714,291.0458,0.00051364,7.898e-05,0.0,0 STARLINK-5177,1 54090U 22136AR  23082.51428382  .00007898  00000-0  51364-3 0  9994,2 54090  53.2167 152.1008 0001678  69.0714 291.0458 15.08849722 23617,6917.851,95.437,540.876,538.555,0.0
54090.0,STARLINK-5177,PAYLOAD,2023-03-23 21:52:52,15.08859161,0.0001602,53.2167,150.3175,78.895,281.2223,0.00064409,9.983e-05,0.0,0 STARLINK-5177,1 54090U 22136AR  23082.91171938  .00009983  00000-0  64409-3 0  9991,2 54090  53.2167 150.3175 0001602  78.8950 281.2223 15.08859161 23674,6917.822,95.436,540.795,538.579,0.0
54090.0,STARLINK-5177,PAYLOAD,2023-03-24 04:14:24,15.08885016,0.0001421,53.2159,149.1275,86.7843,273.3312,0.0012778,0.00020132,0.0,0 STARLINK-5177,1 54090U 22136AR  23083.17667279  .00020132  00000-0  12778-2 0  9998,2 54090  53.2159 149.1275 0001421  86.7843 273.3312 15.08885016 24186,6917.743,95.435,540.591,538.625,0.0
54090.0,STARLINK-5177,PAYLOAD,2023-03-24 10:35:56,15.08918531,0.000158,53.2153,147.9391,77.4633,282.6535,0.0028632,0.00045674,0.0,0 STARLINK-5177,1 54090U 22136AR  23083.44162388  .00045674  00000-0  28632-2 0  9993,2 54090  53.2153 147.9391 0001580  77.4633 282.6535 15.08918531 24229,6917.64,95.433,540.598,538.412,0.0
54090.0,STARLINK-5177,PAYLOAD,2023-03-24 21:43:38,15.08868719,0.0002272,53.2155,145.8566,49.3404,310.7785,0.00039332,5.982e-05,0.0,0 STARLINK-5177,1 54090U 22136AR  23083.90530319  .00005982  00000-0  39332-3 0  9995,2 54090  53.2155 145.8566 0002272  49.3404 310.7785 15.08868719 23822,6917.793,95.436,541.229,538.086,0.0
54090.0,STARLINK-5177,PAYLOAD,2023-03-25 04:05:10,15.08828056,0.0001162,53.2152,144.6665,61.8833,298.2277,-0.0011396,-0.00018373,0.0,0 STARLINK-5177,1 54090U 22136AR  23084.17026361 -.00018373  00000-0 -11396-2 0  9991,2 54090  53.2152 144.6665 0001162  61.8833 298.2277 15.08828056 24331,6917.917,95.438,540.586,538.978,0.0
54090.0,STARLINK-5177,PAYLOAD,2023-03-25 08:51:20,15.08830647,0.0001239,53.2155,143.7746,57.6655,302.4457,-0.00057448,-9.417e-05,0.0,0 STARLINK-5177,1 54090U 22136AR  23084.36898776 -.00009417  00000-0 -57448-3 0  9997,2 54090  53.2155 143.7746 0001239  57.6655 302.4457 15.08830647 24364,6917.909,95.438,540.631,538.917,0.0
54090.0,STARLINK-5177,PAYLOAD,2023-03-26 10:17:32,15.08816514,0.0001134,53.2155,139.0159,52.9107,307.1988,0.00032777,4.929e-05,0.0,0 STARLINK-5177,1 54090U 22136AR  23085.42884793  .00004929  00000-0  32777-3 0  9998,2 54090  53.2155 139.0159 0001134  52.9107 307.1988 15.08816514 24520,6917.952,95.439,540.602,539.033,0.0
54090.0,STARLINK-5177,PAYLOAD,2023-03-26 19:49:51,15.08820621,0.0001104,53.2173,137.2317,88.003,272.1088,0.00040278,6.125e-05,0.0,0 STARLINK-5177,1 54090U 22136AR  23085.82629182  .00006125  00000-0  40278-3 0  9996,2 54090  53.2173 137.2317 0001104  88.0030 272.1088 15.08820621 24119,6917.94,95.439,540.568,539.041,0.0
54090.0,STARLINK-5177,PAYLOAD,2023-03-27 03:46:47,15.08834223,0.0001008,53.2158,135.7432,63.3542,296.7553,0.000633,9.799e-05,0.0,0 STARLINK-5177,1 54090U 22136AR  23086.15749197  .00009799  00000-0  63300-3 0  9993,2 54090  53.2158 135.7432 0001008  63.3542 296.7553 15.08834223 24639,6917.898,95.438,540.46,539.066,0.0
54090.0,STARLINK-5177,PAYLOAD,2023-03-27 11:43:42,15.08857956,0.0001108,53.2163,134.2568,71.1734,288.9378,0.0012438,0.00019572,0.0,0 STARLINK-5177,1 54090U 22136AR  23086.48868858  .00019572  00000-0  12438-2 0  9990,2 54090  53.2163 134.2568 0001108  71.1734 288.9378 15.08857956 24681,6917.826,95.436,540.457,538.924,0.0
54090.0,STARLINK-5177,PAYLOAD,2023-03-27 19:40:38,15.08848327,7.46e-05,53.2172,132.7744,143.2976,216.8067,0.00054977,8.475e-05,0.0,0 STARLINK-5177,1 54090U 22136AR  23086.81988657  .00008475  00000-0  54977-3 0  9992,2 54090  53.2172 132.7744 0000746 143.2976 216.8067 15.08848327 24739,6917.855,95.437,540.236,539.204,0.0
54090.0,STARLINK-5177,PAYLOAD,2023-03-28 09:59:06,15.08849,0.0001176,53.2161,130.0945,82.6545,277.4581,0.0013333,0.00021,0.0,0 STARLINK-5177,1 54090U 22136AR  23087.41605032  .00021000  00000-0  13333-2 0  9991,2 54090  53.2161 130.0945 0001176  82.6545 277.4581 15.08849000 24820,6917.853,95.437,540.531,538.904,0.0
